IRIDIUM 26              
1 24903U 97043A   25267.19279801  .00000792  00000+0  25963-3 0  9995
2 24903  86.3910  68.9920 0002286  92.3182 267.8277 14.37216801470962
IRIDIUM 22              
1 24907U 97043E   25266.99562741  .00000710  00000+0  23758-3 0  9994
2 24907  86.3910  72.7023 0002192  87.8744 272.2704 14.36021380470951
DUMMY MASS 1            
1 24925U 97048A   25267.00165619  .00000789  00000+0  84786-4 0  9990
2 24925  86.3288  89.6153 0007869 140.1267 220.0537 14.87062291519815
DUMMY MASS 2            
1 24926U 97048B   25266.98027715  .00000767  00000+0  82916-4 0  9990
2 24926  86.3289  91.2526 0008202 151.6980 208.4692 14.86813497519588
IRIDIUM 29              
1 24944U 97051A   25267.12240172  .00000696  00000+0  23057-3 0  9996
2 24944  86.3903 102.3888 0001984  83.4069 276.7354 14.36542177467478
IRIDIUM 33              
1 24946U 97051C   25267.28307375  .00000540  00000+0  18288-3 0  9992
2 24946  86.3817 101.5898 0009806 109.4608 250.7648 14.34946465466951
IRIDIUM 28              
1 24948U 97051E   25266.47651309  .00000683  00000+0  22179-3 0  9995
2 24948  86.3905 100.1175 0002586  94.9295 265.2198 14.37448556467966
IRIDIUM 36              
1 24967U 97056C   25267.12038141  .00000579  00000+0  18620-3 0  9997
2 24967  86.3966 131.4709 0002354  84.4540 275.6926 14.37677584466434
